{"type":"FeatureCollection","features":[{"type": "Feature", "geometry": {"type": "Point", "coordinates": [-74.040035, 40.713727]}, "properties": {"geopoint": [40.713727, -74.040035], "zip_code": "7302", "business": "Amelia's Bistro", "address": "187 Warren Street"}},{"type": "Feature", "geometry": {"type": "Point", "coordinates": [-74.035001, 40.716073]}, "properties": {"geopoint": [40.716073, -74.035001], "zip_code": "7302", "business": "Amiya", "address": "101 Hudson Street"}},{"type": "Feature", "geometry": {"type": "Point", "coordinates": [-74.065589, 40.735418]}, "properties": {"geopoint": [40.735418, -74.065589], "zip_code": "7306", "business": "Bikanervala", "address": "815 Newark Avenue"}},{"type": "Feature", "geometry": {"type": "Point", "coordinates": [-74.045521, 40.718841]}, "properties": {"geopoint": [40.718841, -74.045521], "zip_code": "7302", "business": "Franklin Social", "address": "292 Barrow Street"}},{"type": "Feature", "geometry": {"type": "Point", "coordinates": [-74.065261, 40.735859]}, "properties": {"geopoint": [40.735859, -74.065261], "zip_code": "7306", "business": "Hot Breads", "address": "808 Newark Avenue"}},{"type": "Feature", "geometry": {"type": "Point", "coordinates": [-74.044524, 40.72124]}, "properties": {"geopoint": [40.72124, -74.044524], "zip_code": "7302", "business": "Keyhole Bar", "address": "242 Bay Street"}},{"type": "Feature", "geometry": {"type": "Point", "coordinates": [-74.039803, 40.714219]}, "properties": {"geopoint": [40.714219, -74.039803], "zip_code": "7302", "business": "La Cote", "address": "199 Warren Street"}},{"type": "Feature", "geometry": {"type": "Point", "coordinates": [-74.070481, 40.721188]}, "properties": {"geopoint": [40.721188, -74.070481], "zip_code": "7304", "business": "Moore's Place", "address": "189 Monticello Avenue"}},{"type": "Feature", "geometry": {"type": "Point", "coordinates": [-74.039003, 40.714257]}, "properties": {"geopoint": [40.714257, -74.039003], "zip_code": "7302", "business": "Sam A.M.", "address": "112 Morris Street"}},{"type": "Feature", "geometry": {"type": "Point", "coordinates": [-74.042985, 40.717096]}, "properties": {"geopoint": [40.717096, -74.042985], "zip_code": "7302", "business": "Short Grain", "address": "183 Montgomery Street"}},{"type": "Feature", "geometry": {"type": "Point", "coordinates": [-74.043765, 40.72063]}, "properties": {"geopoint": [40.72063, -74.043765], "zip_code": "7302", "business": "Skinner\u2019s Loft", "address": "146 Newark Avenue"}},{"type": "Feature", "geometry": {"type": "Point", "coordinates": [-74.044072, 40.721215]}, "properties": {"geopoint": [40.721215, -74.044072], "zip_code": "7302", "business": "The Boil", "address": "8 Erie Street"}},{"type": "Feature", "geometry": {"type": "Point", "coordinates": [-74.041483, 40.749283]}, "properties": {"geopoint": [40.749283, -74.041483], "zip_code": "7307", "business": "The Cliff", "address": "38 Congress Street"}},{"type": "Feature", "geometry": {"type": "Point", "coordinates": [-74.069451, 40.706732]}, "properties": {"geopoint": [40.706732, -74.069451], "zip_code": "7304", "business": "902 Brewing Co.", "address": "101 Pacific Avenue"}},{"type": "Feature", "geometry": {"type": "Point", "coordinates": [-74.04449, 40.744167]}, "properties": {"geopoint": [40.744167, -74.04449], "zip_code": "7307", "business": "Busy Bee Organics", "address": "451 Palisade Avenue"}},{"type": "Feature", "geometry": {"type": "Point", "coordinates": [-74.087455, 40.70348]}, "properties": {"geopoint": [40.70348, -74.087455], "zip_code": "7305", "business": "Cherry's Lounge", "address": "102 Martin Luther King Jr. Drive"}},{"type": "Feature", "geometry": {"type": "Point", "coordinates": [-74.038315, 40.720089]}, "properties": {"geopoint": [40.720089, -74.038315], "zip_code": "7302", "business": "Cool Vines", "address": "350 Warren Street"}},{"type": "Feature", "geometry": {"type": "Point", "coordinates": [-74.070436, 40.723857]}, "properties": {"geopoint": [40.723857, -74.070436], "zip_code": "7304", "business": "Crema", "address": "695 Bergen Avenue"}},{"type": "Feature", "geometry": {"type": "Point", "coordinates": [-74.041036, 40.748636]}, "properties": {"geopoint": [40.748636, -74.041036], "zip_code": "7307", "business": "Fox & Crow", "address": "594 Palisades Avenue"}},{"type": "Feature", "geometry": {"type": "Point", "coordinates": [-74.047504, 40.721583]}, "properties": {"geopoint": [40.721583, -74.047504], "zip_code": "7302", "business": "Gringos", "address": "12 Coles Street"}},{"type": "Feature", "geometry": {"type": "Point", "coordinates": [-74.070884, 40.711583]}, "properties": {"geopoint": [40.711583, -74.070884], "zip_code": "7304", "business": "Light Rail Cafe", "address": "237 Randolph Avenue"}},{"type": "Feature", "geometry": {"type": "Point", "coordinates": [-74.049633, 40.719469]}, "properties": {"geopoint": [40.719469, -74.049633], "zip_code": "7302", "business": "Sol Azteca", "address": "328 Montgomery Street"}},{"type": "Feature", "geometry": {"type": "Point", "coordinates": [-74.085976, 40.716045]}, "properties": {"geopoint": [40.716045, -74.085976], "zip_code": "7304", "business": "Treehouse Coffee Shop", "address": "434 West Side Avenue"}},{"type": "Feature", "geometry": {"type": "Point", "coordinates": [-74.043629, 40.720146]}, "properties": {"geopoint": [40.720146, -74.043629], "zip_code": "7302", "business": "Two Boots Pizza", "address": "133 Newark Avenue"}},{"type": "Feature", "geometry": {"type": "Point", "coordinates": [-74.043474, 40.755095]}, "properties": {"geopoint": [40.755095, -74.043474], "zip_code": "7307", "business": "512 Quantum Sound", "address": "512 Paterson Plank Road"}},{"type": "Feature", "geometry": {"type": "Point", "coordinates": [-74.046992, 40.722333]}, "properties": {"geopoint": [40.722333, -74.046992], "zip_code": "7302", "business": "Ani Ramen", "address": "218 Newark Avenue"}},{"type": "Feature", "geometry": {"type": "Point", "coordinates": [-74.055853, 40.731104]}, "properties": {"geopoint": [40.731104, -74.055853], "zip_code": "7306", "business": "Churrasqueria", "address": "542 Newark Avenue"}},{"type": "Feature", "geometry": {"type": "Point", "coordinates": [-74.064194, 40.724063]}, "properties": {"geopoint": [40.724063, -74.064194], "zip_code": "7306", "business": "Crave Cafe & Cigars", "address": "61B Baldwin Avenue"}},{"type": "Feature", "geometry": {"type": "Point", "coordinates": [-74.049175, 40.723996]}, "properties": {"geopoint": [40.723996, -74.049175], "zip_code": "7302", "business": "Cryo Cream Corp", "address": "413 Monmouth St"}},{"type": "Feature", "geometry": {"type": "Point", "coordinates": [-74.063851, 40.735229]}, "properties": {"geopoint": [40.735229, -74.063851], "zip_code": "7306", "business": "Deccan Spice", "address": "771 Newark Avenue"}},{"type": "Feature", "geometry": {"type": "Point", "coordinates": [-74.058212, 40.73396]}, "properties": {"geopoint": [40.73396, -74.058212], "zip_code": "7306", "business": "Freetown Road Project", "address": "640 Newark Avenue"}},{"type": "Feature", "geometry": {"type": "Point", "coordinates": [-74.048905, 40.742151]}, "properties": {"geopoint": [40.742151, -74.048905], "zip_code": "7307", "business": "Green Pear Heights", "address": "93 Franklin Street"}},{"type": "Feature", "geometry": {"type": "Point", "coordinates": [-74.066274, 40.724004]}, "properties": {"geopoint": [40.724004, -74.066274], "zip_code": "7306", "business": "Guerrero Restaurant", "address": "6 Jordan Avenue"}},{"type": "Feature", "geometry": {"type": "Point", "coordinates": [-74.04082, 40.721272]}, "properties": {"geopoint": [40.721272, -74.04082], "zip_code": "7302", "business": "Hudson Hall", "address": "364 Marin Boulevard"}},{"type": "Feature", "geometry": {"type": "Point", "coordinates": [-74.043375, 40.718953]}, "properties": {"geopoint": [40.718953, -74.043375], "zip_code": "7302", "business": "Pint Cafe", "address": "34 Wayne Street"}},{"type": "Feature", "geometry": {"type": "Point", "coordinates": [-74.065439, 40.735872]}, "properties": {"geopoint": [40.735872, -74.065439], "zip_code": "7306", "business": "Rajbhog", "address": "812 Newark Avenue"}},{"type": "Feature", "geometry": {"type": "Point", "coordinates": [-74.037541, 40.714401]}, "properties": {"geopoint": [40.714401, -74.037541], "zip_code": "7302", "business": "Satis Bistro", "address": "212 Washington Street"}},{"type": "Feature", "geometry": {"type": "Point", "coordinates": [-74.048826, 40.723179]}, "properties": {"geopoint": [40.723179, -74.048826], "zip_code": "7302", "business": "Sub Culture", "address": "260 Newark Avenue"}},{"type": "Feature", "geometry": {"type": "Point", "coordinates": [-74.061427, 40.734922]}, "properties": {"geopoint": [40.734922, -74.061427], "zip_code": "7306", "business": "Swadist", "address": "715 Newark Avenue"}},{"type": "Feature", "geometry": {"type": "Point", "coordinates": [-74.046991, 40.719716]}, "properties": {"geopoint": [40.719716, -74.046991], "zip_code": "7302", "business": "The Kitchen Step", "address": "500 Jersey Avenue"}},{"type": "Feature", "geometry": {"type": "Point", "coordinates": [-74.039921, 40.721022]}, "properties": {"geopoint": [40.721022, -74.039921], "zip_code": "7302", "business": "Departed Soles", "address": "150 Bay Street"}},{"type": "Feature", "geometry": {"type": "Point", "coordinates": [-74.06407, 40.735276]}, "properties": {"geopoint": [40.735276, -74.06407], "zip_code": "7306", "business": "Dosa Hut", "address": "777 Newark Avenue"}},{"type": "Feature", "geometry": {"type": "Point", "coordinates": [-74.046525, 40.72856]}, "properties": {"geopoint": [40.72856, -74.046525], "zip_code": "7302", "business": "Ed & Mary's", "address": "174 Coles Street"}},{"type": "Feature", "geometry": {"type": "Point", "coordinates": [-74.044072, 40.721215]}, "properties": {"geopoint": [40.721215, -74.044072], "zip_code": "7302", "business": "Hudson Hound", "address": "8 Erie Street"}},{"type": "Feature", "geometry": {"type": "Point", "coordinates": [-74.043631, 40.718758]}, "properties": {"geopoint": [40.718758, -74.043631], "zip_code": "7302", "business": "Ibby Falafel Inc.", "address": "303 Grove Street"}},{"type": "Feature", "geometry": {"type": "Point", "coordinates": [-74.085133, 40.716658]}, "properties": {"geopoint": [40.716658, -74.085133], "zip_code": "7304", "business": "Jayhan's Grill", "address": "456 West Side Avenue"}},{"type": "Feature", "geometry": {"type": "Point", "coordinates": [-74.038317, 40.714012]}, "properties": {"geopoint": [40.714012, -74.038317], "zip_code": "7302", "business": "Light Horse Tavern", "address": "199 Washington Street"}},{"type": "Feature", "geometry": {"type": "Point", "coordinates": [-74.0454, 40.742712]}, "properties": {"geopoint": [40.742712, -74.0454], "zip_code": "7307", "business": "MariaCarmen Supermarket", "address": "407 Palisade Avenue"}},{"type": "Feature", "geometry": {"type": "Point", "coordinates": [-74.071764, 40.734165]}, "properties": {"geopoint": [40.734165, -74.071764], "zip_code": "7306", "business": "Marion Branch Public Library", "address": "1017 West Side Ave"}},{"type": "Feature", "geometry": {"type": "Point", "coordinates": [-74.063496, 40.727434]}, "properties": {"geopoint": [40.727434, -74.063496], "zip_code": "7306", "business": "Rosita's Yah", "address": "203 Academy"}},{"type": "Feature", "geometry": {"type": "Point", "coordinates": [-74.046995, 40.7417]}, "properties": {"geopoint": [40.7417, -74.046995], "zip_code": "7307", "business": "The Franklin Bistro", "address": "159 New York Avenue"}},{"type": "Feature", "geometry": {"type": "Point", "coordinates": [-74.049125, 40.723815]}, "properties": {"geopoint": [40.723815, -74.049125], "zip_code": "7302", "business": "Abbey's Pub", "address": "407 Monmouth Street"}},{"type": "Feature", "geometry": {"type": "Point", "coordinates": [-74.051545, 40.717893]}, "properties": {"geopoint": [40.717893, -74.051545], "zip_code": "7302", "business": "Brightside Tavern", "address": "141 Bright Street"}},{"type": "Feature", "geometry": {"type": "Point", "coordinates": [-74.056898, 40.732368]}, "properties": {"geopoint": [40.732368, -74.056898], "zip_code": "7306", "business": "Cafe Peanut", "address": "586 Newark Avenue"}},{"type": "Feature", "geometry": {"type": "Point", "coordinates": [-74.051516, 40.725055]}, "properties": {"geopoint": [40.725055, -74.051516], "zip_code": "7302", "business": "Cellar 335", "address": "335 Newark Avenue"}},{"type": "Feature", "geometry": {"type": "Point", "coordinates": [-74.058924, 40.734149]}, "properties": {"geopoint": [40.734149, -74.058924], "zip_code": "7306", "business": "Grape Vine Tavern", "address": "657 Newark Avenue"}},{"type": "Feature", "geometry": {"type": "Point", "coordinates": [-74.046158, 40.721228]}, "properties": {"geopoint": [40.721228, -74.046158], "zip_code": "7302", "business": "Koro Koro Rice Ball Cafe", "address": "538 Jersey Avenue"}},{"type": "Feature", "geometry": {"type": "Point", "coordinates": [-74.041554, 40.748642]}, "properties": {"geopoint": [40.748642, -74.041554], "zip_code": "7307", "business": "Little Dove Cafe", "address": "589 Palisades Avenue"}},{"type": "Feature", "geometry": {"type": "Point", "coordinates": [-74.031736, 40.721566]}, "properties": {"geopoint": [40.721566, -74.031736], "zip_code": "7302", "business": "Lokal", "address": "2 2nd Street"}},{"type": "Feature", "geometry": {"type": "Point", "coordinates": [-74.06416, 40.735285]}, "properties": {"geopoint": [40.735285, -74.06416], "zip_code": "7306", "business": "Paratha Junction", "address": "779 Newark Avenue"}},{"type": "Feature", "geometry": {"type": "Point", "coordinates": [-74.04659, 40.721286]}, "properties": {"geopoint": [40.721286, -74.04659], "zip_code": "7302", "business": "Pasta Dal Cuore", "address": "537 Jersey Avenue"}},{"type": "Feature", "geometry": {"type": "Point", "coordinates": [-74.065108, 40.735442]}, "properties": {"geopoint": [40.735442, -74.065108], "zip_code": "7306", "business": "Pias Rest./Honest", "address": "811 Newark Avenue"}},{"type": "Feature", "geometry": {"type": "Point", "coordinates": [-74.060229, 40.712815]}, "properties": {"geopoint": [40.712815, -74.060229], "zip_code": "7304", "business": "Plant Base", "address": "370 Pacific Avenue"}},{"type": "Feature", "geometry": {"type": "Point", "coordinates": [-74.065352, 40.735857]}, "properties": {"geopoint": [40.735857, -74.065352], "zip_code": "7306", "business": "Rasoi Restaurant", "address": "810 Newark Avenue"}},{"type": "Feature", "geometry": {"type": "Point", "coordinates": [-74.044376, 40.717776]}, "properties": {"geopoint": [40.717776, -74.044376], "zip_code": "7302", "business": "Razza", "address": "275 Grove Street"}},{"type": "Feature", "geometry": {"type": "Point", "coordinates": [-74.046482, 40.720377]}, "properties": {"geopoint": [40.720377, -74.046482], "zip_code": "7302", "business": "Wurstbar", "address": "516 Jersey Avenue"}}]}